EXO-0                   
1 59175U 23174DK  26068.71046781  .00011582  00000+0  36716-3 0  9992
2 59175  97.3864 148.9039 0009878 157.1125 203.0559 15.32821991129797
STARLINK-34534          
1 64763U 25147J   26068.71492983  .00011263  00000+0  39184-3 0  9990
2 64763  53.1572 242.7764 0001273  54.4002 305.7117 15.30199229 38759
